[{"icaoId":"KMCO","receiptTime":"2026-07-21T20:54:21.951Z","obsTime":1784667180,"reportTime":"2026-07-21T21:00:00.000Z","temp":34,"dewp":21,"wdir":170,"wspd":11,"visib":"10+","altim":1015.3,"qcField":0,"metarType":"METAR","rawOb":"METAR KMCO 212053Z 17011KT 10SM SCT060 SCT120 SCT250 34/21 A2998","lat":28.4182,"lon":-81.3241,"elev":27,"name":"Orlando Intl, FL, US","cover":"SCT","clouds":[{"cover":"SCT","base":6000},{"cover":"SCT","base":12000},{"cover":"SCT","base":25000}],"fltCat":"VFR"},{"icaoId":"KJAX","receiptTime":"2026-07-21T20:00:19.199Z","obsTime":1784663760,"reportTime":"2026-07-21T20:00:00.000Z","temp":35,"dewp":22.2,"wdir":150,"wspd":11,"visib":"10+","altim":1014,"slp":1013.7,"qcField":12,"metarType":"METAR","rawOb":"METAR KJAX 211956Z 15011KT 10SM SCT055 BKN250 35/22 A2994 RMK AO2 SLP137 T03500222 $","lat":30.4953,"lon":-81.6937,"elev":8,"name":"Jacksonville Intl, FL, US","cover":"BKN","clouds":[{"cover":"SCT","base":5500},{"cover":"BKN","base":25000}],"fltCat":"VFR"},{"icaoId":"KDAB","receiptTime":"2026-07-21T19:56:28.034Z","obsTime":1784663580,"reportTime":"2026-07-21T20:00:00.000Z","temp":34.4,"dewp":21.7,"wdir":200,"wspd":8,"visib":"10+","altim":1015,"slp":1014.8,"qcField":4,"metarType":"METAR","rawOb":"METAR KDAB 211953Z 20008KT 10SM FEW060 SCT070 34/22 A2997 RMK AO2 SLP148 T03440217","lat":29.1735,"lon":-81.0719,"elev":8,"name":"Daytona Beach Intl, FL, US","cover":"SCT","clouds":[{"cover":"FEW","base":6000},{"cover":"SCT","base":7000}],"fltCat":"VFR"},{"icaoId":"KMCO","receiptTime":"2026-07-21T19:55:40.148Z","obsTime":1784663580,"reportTime":"2026-07-21T20:00:00.000Z","temp":36,"dewp":22,"wdir":180,"wspd":12,"wgst":19,"visib":"10+","altim":1016,"qcField":0,"metarType":"METAR","rawOb":"METAR KMCO 211953Z 18012G19KT 10SM FEW050 FEW250 36/22 A3000","lat":28.4182,"lon":-81.3241,"elev":27,"name":"Orlando Intl, FL, US","cover":"FEW","clouds":[{"cover":"FEW","base":5000},{"cover":"FEW","base":25000}],"fltCat":"VFR"},{"icaoId":"KJAX","receiptTime":"2026-07-21T19:00:22.301Z","obsTime":1784660160,"reportTime":"2026-07-21T19:00:00.000Z","temp":34.4,"dewp":22.8,"wdir":170,"wspd":11,"wgst":19,"visib":"10+","altim":1014.3,"slp":1014.2,"qcField":12,"metarType":"METAR","rawOb":"METAR KJAX 211856Z 17011G19KT 10SM SCT050 BKN250 34/23 A2995 RMK AO2 SLP142 T03440228 $","lat":30.4953,"lon":-81.6937,"elev":8,"name":"Jacksonville Intl, FL, US","cover":"BKN","clouds":[{"cover":"SCT","base":5000},{"cover":"BKN","base":25000}],"fltCat":"VFR"}]